STARLINK-37387          
1 68973U 26099Y   26132.83335648  .00017485  00000+0  91956-4 0  9991
2 68973  53.1591 331.5586 0000900  74.8736 345.8929 15.80870603  2981
