{
  "norad_id": 68973,
  "name": "STARLINK-37387",
  "history": [
    {
      "epoch": "2026-05-12T20:00:01.999008Z",
      "apogee_km": 328.58096715095326,
      "perigee_km": 327.37386655591945,
      "latitude_deg": 44.43821378956065,
      "longitude_deg": -152.12185845774138,
      "height_km": 331.9353058258544,
      "semi_major_axis_km": 6706.1144168534365,
      "eccentricity": 9e-05,
      "inclination_deg": 53.1591,
      "raan_deg": 331.5586,
      "arg_perigee_deg": 74.8736,
      "mean_anomaly_deg": 345.8929,
      "mean_motion_rev_day": 15.80870603
    }
  ]
}